SITE  NAME,EIS Facility ID,STATE,State-County,Pollutant,Pollutant Type,Emissions,Facility Type,Street Address,NAICS,EPA Region,FIPS,Latitude,Longitude
Hyundai Motor Manufacturing Alabama LLC.,10553111,Alabama,AL - Montgomery,Volatile Organic Compounds,CAP,341.63,Automobile/Truck or Parts Plant,700 Hyundai Blvd,Automobile and Light Duty Motor Vehicle Manufacturing,4,1101,32.287594,-86.331777
Hyundai Motor Manufacturing Alabama LLC.,10553111,Alabama,AL - Montgomery,Nitrogen Oxides,CAP,31.38,Automobile/Truck or Parts Plant,700 Hyundai Blvd,Automobile and Light Duty Motor Vehicle Manufacturing,4,1101,32.287594,-86.331777
Hyundai Motor Manufacturing Alabama LLC.,10553111,Alabama,AL - Montgomery,PM2.5 Primary (Filt + Cond),CAP,17.22,Automobile/Truck or Parts Plant,700 Hyundai Blvd,Automobile and Light Duty Motor Vehicle Manufacturing,4,1101,32.287594,-86.331777
Hyundai Motor Manufacturing Alabama LLC.,10553111,Alabama,AL - Montgomery,Sulfur Dioxide,CAP,0.14,Automobile/Truck or Parts Plant,700 Hyundai Blvd,Automobile and Light Duty Motor Vehicle Manufacturing,4,1101,32.287594,-86.331777
"Honda Development & Manufacturing of America, LLC",999811,Alabama,AL - Talladega,Volatile Organic Compounds,CAP,532.8,Automobile/Truck or Parts Plant,1800 Honda Dr,Automobile and Light Duty Motor Vehicle Manufacturing,4,1121,33.610505,-86.143028
"Honda Development & Manufacturing of America, LLC",999811,Alabama,AL - Talladega,Nitrogen Oxides,CAP,68.4,Automobile/Truck or Parts Plant,1800 Honda Dr,Automobile and Light Duty Motor Vehicle Manufacturing,4,1121,33.610505,-86.143028
"Honda Development & Manufacturing of America, LLC",999811,Alabama,AL - Talladega,PM2.5 Primary (Filt + Cond),CAP,15.24,Automobile/Truck or Parts Plant,1800 Honda Dr,Automobile and Light Duty Motor Vehicle Manufacturing,4,1121,33.610505,-86.143028
"Honda Development & Manufacturing of America, LLC",999811,Alabama,AL - Talladega,Sulfur Dioxide,CAP,12.3,Automobile/Truck or Parts Plant,1800 Honda Dr,Automobile and Light Duty Motor Vehicle Manufacturing,4,1121,33.610505,-86.143028
"Mercedes-Benz US International, INC.",950011,Alabama,AL - Tuscaloosa,Volatile Organic Compounds,CAP,363.15,Automobile/Truck or Parts Plant,1 Mercedes Dr,Automobile and Light Duty Motor Vehicle Manufacturing,4,1125,33.182954,-87.261739
"Mercedes-Benz US International, INC.",950011,Alabama,AL - Tuscaloosa,Nitrogen Oxides,CAP,27.9,Automobile/Truck or Parts Plant,1 Mercedes Dr,Automobile and Light Duty Motor Vehicle Manufacturing,4,1125,33.182954,-87.261739
"Mercedes-Benz US International, INC.",950011,Alabama,AL - Tuscaloosa,PM2.5 Primary (Filt + Cond),CAP,21.91,Automobile/Truck or Parts Plant,1 Mercedes Dr,Automobile and Light Duty Motor Vehicle Manufacturing,4,1125,33.182954,-87.261739
"Mercedes-Benz US International, INC.",950011,Alabama,AL - Tuscaloosa,Sulfur Dioxide,CAP,0.27,Automobile/Truck or Parts Plant,1 Mercedes Dr,Automobile and Light Duty Motor Vehicle Manufacturing,4,1125,33.182954,-87.261739
Kia Motors Manufacturing Georgia Inc,15040111,Georgia,GA - Troup,Volatile Organic Compounds,CAP,204.58,Automobile/Truck or Parts Plant,7777 KIA Parkway,Automobile and Light Duty Motor Vehicle Manufacturing,4,13285,32.9172,-85.1253
Kia Motors Manufacturing Georgia Inc,15040111,Georgia,GA - Troup,PM2.5 Primary (Filt + Cond),CAP,16.08,Automobile/Truck or Parts Plant,7777 KIA Parkway,Automobile and Light Duty Motor Vehicle Manufacturing,4,13285,32.9172,-85.1253
Kia Motors Manufacturing Georgia Inc,15040111,Georgia,GA - Troup,Nitrogen Oxides,CAP,12.35,Automobile/Truck or Parts Plant,7777 KIA Parkway,Automobile and Light Duty Motor Vehicle Manufacturing,4,13285,32.9172,-85.1253
Kia Motors Manufacturing Georgia Inc,15040111,Georgia,GA - Troup,Sulfur Dioxide,CAP,0.11,Automobile/Truck or Parts Plant,7777 KIA Parkway,Automobile and Light Duty Motor Vehicle Manufacturing,4,13285,32.9172,-85.1253
FCA US LLC,930911,Illinois,IL - Boone,Volatile Organic Compounds,CAP,229.82,Automobile/Truck or Parts Plant,3000 W Chrysler Dr,Automobile and Light Duty Motor Vehicle Manufacturing,5,17007,42.236391,-88.869135
FCA US LLC,930911,Illinois,IL - Boone,Nitrogen Oxides,CAP,48.91,Automobile/Truck or Parts Plant,3000 W Chrysler Dr,Automobile and Light Duty Motor Vehicle Manufacturing,5,17007,42.236391,-88.869135
FCA US LLC,930911,Illinois,IL - Boone,PM2.5 Primary (Filt + Cond),CAP,3.8,Automobile/Truck or Parts Plant,3000 W Chrysler Dr,Automobile and Light Duty Motor Vehicle Manufacturing,5,17007,42.236391,-88.869135
FCA US LLC,930911,Illinois,IL - Boone,Sulfur Dioxide,CAP,0.29,Automobile/Truck or Parts Plant,3000 W Chrysler Dr,Automobile and Light Duty Motor Vehicle Manufacturing,5,17007,42.236391,-88.869135
Ford Motor Co,7317011,Illinois,IL - Cook,Volatile Organic Compounds,CAP,406.54,Automobile/Truck or Parts Plant,12600 S Torrence Ave,Automobile and Light Duty Motor Vehicle Manufacturing,5,17031,41.663722,-87.561409
Ford Motor Co,7317011,Illinois,IL - Cook,Nitrogen Oxides,CAP,48.23,Automobile/Truck or Parts Plant,12600 S Torrence Ave,Automobile and Light Duty Motor Vehicle Manufacturing,5,17031,41.663722,-87.561409
Ford Motor Co,7317011,Illinois,IL - Cook,PM2.5 Primary (Filt + Cond),CAP,27.27,Automobile/Truck or Parts Plant,12600 S Torrence Ave,Automobile and Light Duty Motor Vehicle Manufacturing,5,17031,41.663722,-87.561409
Ford Motor Co,7317011,Illinois,IL - Cook,Sulfur Dioxide,CAP,0.31,Automobile/Truck or Parts Plant,12600 S Torrence Ave,Automobile and Light Duty Motor Vehicle Manufacturing,5,17031,41.663722,-87.561409
General Motors LLC Fort Wayne Assembly,8186411,Indiana,IN - Allen,Volatile Organic Compounds,CAP,1457.85,Automobile/Truck or Parts Plant,12200 Lafayette Center Rd,Automobile and Light Duty Motor Vehicle Manufacturing,5,18003,40.964311,-85.302752
General Motors LLC Fort Wayne Assembly,8186411,Indiana,IN - Allen,Nitrogen Oxides,CAP,86.67,Automobile/Truck or Parts Plant,12200 Lafayette Center Rd,Automobile and Light Duty Motor Vehicle Manufacturing,5,18003,40.964311,-85.302752
General Motors LLC Fort Wayne Assembly,8186411,Indiana,IN - Allen,PM2.5 Primary (Filt + Cond),CAP,50.55,Automobile/Truck or Parts Plant,12200 Lafayette Center Rd,Automobile and Light Duty Motor Vehicle Manufacturing,5,18003,40.964311,-85.302752
General Motors LLC Fort Wayne Assembly,8186411,Indiana,IN - Allen,Sulfur Dioxide,CAP,0.34,Automobile/Truck or Parts Plant,12200 Lafayette Center Rd,Automobile and Light Duty Motor Vehicle Manufacturing,5,18003,40.964311,-85.302752
TOYOTA MOTOR MANUFACTURING INDIANA INCO,7363211,Indiana,IN - Gibson,Volatile Organic Compounds,CAP,841.04,Automobile/Truck or Parts Plant,4000 Tulip Tree Dr,Automobile and Light Duty Motor Vehicle Manufacturing,5,18051,38.2931,-87.5598
TOYOTA MOTOR MANUFACTURING INDIANA INCO,7363211,Indiana,IN - Gibson,PM2.5 Primary (Filt + Cond),CAP,79.64,Automobile/Truck or Parts Plant,4000 Tulip Tree Dr,Automobile and Light Duty Motor Vehicle Manufacturing,5,18051,38.2931,-87.5598
TOYOTA MOTOR MANUFACTURING INDIANA INCO,7363211,Indiana,IN - Gibson,Nitrogen Oxides,CAP,48.29,Automobile/Truck or Parts Plant,4000 Tulip Tree Dr,Automobile and Light Duty Motor Vehicle Manufacturing,5,18051,38.2931,-87.5598
TOYOTA MOTOR MANUFACTURING INDIANA INCO,7363211,Indiana,IN - Gibson,Sulfur Dioxide,CAP,0.29,Automobile/Truck or Parts Plant,4000 Tulip Tree Dr,Automobile and Light Duty Motor Vehicle Manufacturing,5,18051,38.2931,-87.5598
SUBARU OF INDIANA AUTOMOTIVE  INC  SIA,8186811,Indiana,IN - Tippecanoe,Volatile Organic Compounds,CAP,749.26,Automobile/Truck or Parts Plant,5500 SR 38 E,Automobile and Light Duty Motor Vehicle Manufacturing,5,18157,40.3791,-86.7994
SUBARU OF INDIANA AUTOMOTIVE  INC  SIA,8186811,Indiana,IN - Tippecanoe,Nitrogen Oxides,CAP,44.75,Automobile/Truck or Parts Plant,5500 SR 38 E,Automobile and Light Duty Motor Vehicle Manufacturing,5,18157,40.3791,-86.7994
SUBARU OF INDIANA AUTOMOTIVE  INC  SIA,8186811,Indiana,IN - Tippecanoe,PM2.5 Primary (Filt + Cond),CAP,8.11,Automobile/Truck or Parts Plant,5500 SR 38 E,Automobile and Light Duty Motor Vehicle Manufacturing,5,18157,40.3791,-86.7994
SUBARU OF INDIANA AUTOMOTIVE  INC  SIA,8186811,Indiana,IN - Tippecanoe,Sulfur Dioxide,CAP,0.27,Automobile/Truck or Parts Plant,5500 SR 38 E,Automobile and Light Duty Motor Vehicle Manufacturing,5,18157,40.3791,-86.7994
General Motors - Kansas City,8080111,Kansas,KS - Wyandotte,Volatile Organic Compounds,CAP,326.39,Automobile/Truck or Parts Plant,3201 FAIRFAX TRFCWY.,Automobile and Light Duty Motor Vehicle Manufacturing,7,20209,39.147533,-94.601884
General Motors - Kansas City,8080111,Kansas,KS - Wyandotte,PM2.5 Primary (Filt + Cond),CAP,46.46,Automobile/Truck or Parts Plant,3201 FAIRFAX TRFCWY.,Automobile and Light Duty Motor Vehicle Manufacturing,7,20209,39.147533,-94.601884
General Motors - Kansas City,8080111,Kansas,KS - Wyandotte,Nitrogen Oxides,CAP,19.81,Automobile/Truck or Parts Plant,3201 FAIRFAX TRFCWY.,Automobile and Light Duty Motor Vehicle Manufacturing,7,20209,39.147533,-94.601884
General Motors - Kansas City,8080111,Kansas,KS - Wyandotte,Sulfur Dioxide,CAP,0.19,Automobile/Truck or Parts Plant,3201 FAIRFAX TRFCWY.,Automobile and Light Duty Motor Vehicle Manufacturing,7,20209,39.147533,-94.601884
"Toyota Motor Manufacturing, Kentucky",7203211,Kentucky,KY - Scott,Volatile Organic Compounds,CAP,1012.42,Automobile/Truck or Parts Plant,1001 Cherry Blossom Way,Automobile and Light Duty Motor Vehicle Manufacturing,4,21209,38.26035,-84.534367
"Toyota Motor Manufacturing, Kentucky",7203211,Kentucky,KY - Scott,PM2.5 Primary (Filt + Cond),CAP,70.67,Automobile/Truck or Parts Plant,1001 Cherry Blossom Way,Automobile and Light Duty Motor Vehicle Manufacturing,4,21209,38.26035,-84.534367
"Toyota Motor Manufacturing, Kentucky",7203211,Kentucky,KY - Scott,Nitrogen Oxides,CAP,56.39,Automobile/Truck or Parts Plant,1001 Cherry Blossom Way,Automobile and Light Duty Motor Vehicle Manufacturing,4,21209,38.26035,-84.534367
"Toyota Motor Manufacturing, Kentucky",7203211,Kentucky,KY - Scott,Sulfur Dioxide,CAP,0.35,Automobile/Truck or Parts Plant,1001 Cherry Blossom Way,Automobile and Light Duty Motor Vehicle Manufacturing,4,21209,38.26035,-84.534367
General Motors LLC,7928611,Kentucky,KY - Warren,Volatile Organic Compounds,CAP,76.54,Automobile/Truck or Parts Plant,600 Corvette Dr,Automobile and Light Duty Motor Vehicle Manufacturing,4,21227,37.008056,-86.367778
General Motors LLC,7928611,Kentucky,KY - Warren,Nitrogen Oxides,CAP,13.28,Automobile/Truck or Parts Plant,600 Corvette Dr,Automobile and Light Duty Motor Vehicle Manufacturing,4,21227,37.008056,-86.367778
General Motors LLC,7928611,Kentucky,KY - Warren,PM2.5 Primary (Filt + Cond),CAP,3.38,Automobile/Truck or Parts Plant,600 Corvette Dr,Automobile and Light Duty Motor Vehicle Manufacturing,4,21227,37.008056,-86.367778
General Motors LLC,7928611,Kentucky,KY - Warren,Sulfur Dioxide,CAP,0.09,Automobile/Truck or Parts Plant,600 Corvette Dr,Automobile and Light Duty Motor Vehicle Manufacturing,4,21227,37.008056,-86.367778
Shreveport Business Park LLC - Shreveport Assembly Plant,8467011,Louisiana,LA - Caddo,Volatile Organic Compounds,CAP,0.4,Automobile/Truck or Parts Plant,7600 General Motors Blvd,Automobile and Light Duty Motor Vehicle Manufacturing,6,22017,32.4268,-93.9181
General Motors LLC Flint Assembly,7885411,Michigan,MI - Genesee,Volatile Organic Compounds,CAP,366.47,Automobile/Truck or Parts Plant,G-3100  Van Slyke Rd.,Automobile and Light Duty Motor Vehicle Manufacturing,5,26049,42.985622,-83.716612
General Motors LLC Flint Assembly,7885411,Michigan,MI - Genesee,Nitrogen Oxides,CAP,44.78,Automobile/Truck or Parts Plant,G-3100  Van Slyke Rd.,Automobile and Light Duty Motor Vehicle Manufacturing,5,26049,42.985622,-83.716612
General Motors LLC Flint Assembly,7885411,Michigan,MI - Genesee,PM2.5 Primary (Filt + Cond),CAP,7,Automobile/Truck or Parts Plant,G-3100  Van Slyke Rd.,Automobile and Light Duty Motor Vehicle Manufacturing,5,26049,42.985622,-83.716612
General Motors LLC Flint Assembly,7885411,Michigan,MI - Genesee,Sulfur Dioxide,CAP,0.26,Automobile/Truck or Parts Plant,G-3100  Van Slyke Rd.,Automobile and Light Duty Motor Vehicle Manufacturing,5,26049,42.985622,-83.716612
General Motors Lansing Grand River Assembly,8098811,Michigan,MI - Ingham,Volatile Organic Compounds,CAP,138.83,Automobile/Truck or Parts Plant,920  TOWNSEND ST.,Automobile and Light Duty Motor Vehicle Manufacturing,5,26065,42.7228,-84.5622
General Motors Lansing Grand River Assembly,8098811,Michigan,MI - Ingham,Nitrogen Oxides,CAP,17.4,Automobile/Truck or Parts Plant,920  TOWNSEND ST.,Automobile and Light Duty Motor Vehicle Manufacturing,5,26065,42.7228,-84.5622
General Motors Lansing Grand River Assembly,8098811,Michigan,MI - Ingham,PM2.5 Primary (Filt + Cond),CAP,1.62,Automobile/Truck or Parts Plant,920  TOWNSEND ST.,Automobile and Light Duty Motor Vehicle Manufacturing,5,26065,42.7228,-84.5622
General Motors Lansing Grand River Assembly,8098811,Michigan,MI - Ingham,Sulfur Dioxide,CAP,0.15,Automobile/Truck or Parts Plant,920  TOWNSEND ST.,Automobile and Light Duty Motor Vehicle Manufacturing,5,26065,42.7228,-84.5622
FCA US LLC Sterling Heights Assembly plant,8245111,Michigan,MI - Macomb,Volatile Organic Compounds,CAP,469.73,Automobile/Truck or Parts Plant,38111  Van Dyke,Automobile and Light Duty Motor Vehicle Manufacturing,5,26099,42.569552,-83.033734
FCA US LLC Sterling Heights Assembly plant,8245111,Michigan,MI - Macomb,Nitrogen Oxides,CAP,80.31,Automobile/Truck or Parts Plant,38111  Van Dyke,Automobile and Light Duty Motor Vehicle Manufacturing,5,26099,42.569552,-83.033734
FCA US LLC Sterling Heights Assembly plant,8245111,Michigan,MI - Macomb,PM2.5 Primary (Filt + Cond),CAP,23.82,Automobile/Truck or Parts Plant,38111  Van Dyke,Automobile and Light Duty Motor Vehicle Manufacturing,5,26099,42.569552,-83.033734
FCA US LLC Sterling Heights Assembly plant,8245111,Michigan,MI - Macomb,Sulfur Dioxide,CAP,0.48,Automobile/Truck or Parts Plant,38111  Van Dyke,Automobile and Light Duty Motor Vehicle Manufacturing,5,26099,42.569552,-83.033734
FCA US LLC WARREN TRUCK ASSEMBLY PLANT,8227511,Michigan,MI - Macomb,Volatile Organic Compounds,CAP,827.6,Automobile/Truck or Parts Plant,21500  Mound Road,Automobile and Light Duty Motor Vehicle Manufacturing,5,26099,42.45544,-83.040949
FCA US LLC WARREN TRUCK ASSEMBLY PLANT,8227511,Michigan,MI - Macomb,Nitrogen Oxides,CAP,54.1,Automobile/Truck or Parts Plant,21500  Mound Road,Automobile and Light Duty Motor Vehicle Manufacturing,5,26099,42.45544,-83.040949
FCA US LLC WARREN TRUCK ASSEMBLY PLANT,8227511,Michigan,MI - Macomb,PM2.5 Primary (Filt + Cond),CAP,8.21,Automobile/Truck or Parts Plant,21500  Mound Road,Automobile and Light Duty Motor Vehicle Manufacturing,5,26099,42.45544,-83.040949
FCA US LLC WARREN TRUCK ASSEMBLY PLANT,8227511,Michigan,MI - Macomb,Sulfur Dioxide,CAP,0.37,Automobile/Truck or Parts Plant,21500  Mound Road,Automobile and Light Duty Motor Vehicle Manufacturing,5,26099,42.45544,-83.040949
GENERAL MOTORS LLC - ORION ASSEMBLY,7424511,Michigan,MI - Oakland,Nitrogen Oxides,CAP,41.31,Automobile/Truck or Parts Plant,4555  GIDDINGS RD,Automobile and Light Duty Motor Vehicle Manufacturing,5,26125,42.7158,-83.2607
GENERAL MOTORS LLC - ORION ASSEMBLY,7424511,Michigan,MI - Oakland,Volatile Organic Compounds,CAP,30.46,Automobile/Truck or Parts Plant,4555  GIDDINGS RD,Automobile and Light Duty Motor Vehicle Manufacturing,5,26125,42.7158,-83.2607
GENERAL MOTORS LLC - ORION ASSEMBLY,7424511,Michigan,MI - Oakland,Sulfur Dioxide,CAP,8.99,Automobile/Truck or Parts Plant,4555  GIDDINGS RD,Automobile and Light Duty Motor Vehicle Manufacturing,5,26125,42.7158,-83.2607
GENERAL MOTORS LLC - ORION ASSEMBLY,7424511,Michigan,MI - Oakland,PM2.5 Primary (Filt + Cond),CAP,6.38,Automobile/Truck or Parts Plant,4555  GIDDINGS RD,Automobile and Light Duty Motor Vehicle Manufacturing,5,26125,42.7158,-83.2607
FCA US LLC - JEFFERSON NORTH ASSEMBLY PLANT,8244911,Michigan,MI - Wayne,Volatile Organic Compounds,CAP,630.93,Automobile/Truck or Parts Plant,2101  CONNER AVE,Automobile and Light Duty Motor Vehicle Manufacturing,5,26163,42.3732,-82.9681
FCA US LLC - JEFFERSON NORTH ASSEMBLY PLANT,8244911,Michigan,MI - Wayne,Nitrogen Oxides,CAP,65.88,Automobile/Truck or Parts Plant,2101  CONNER AVE,Automobile and Light Duty Motor Vehicle Manufacturing,5,26163,42.3732,-82.9681
FCA US LLC - JEFFERSON NORTH ASSEMBLY PLANT,8244911,Michigan,MI - Wayne,PM2.5 Primary (Filt + Cond),CAP,28.18,Automobile/Truck or Parts Plant,2101  CONNER AVE,Automobile and Light Duty Motor Vehicle Manufacturing,5,26163,42.3732,-82.9681
FCA US LLC - JEFFERSON NORTH ASSEMBLY PLANT,8244911,Michigan,MI - Wayne,Sulfur Dioxide,CAP,0.49,Automobile/Truck or Parts Plant,2101  CONNER AVE,Automobile and Light Duty Motor Vehicle Manufacturing,5,26163,42.3732,-82.9681
FORD MOTOR CO ROUGE COMPLEX,7884911,Michigan,MI - Wayne,Volatile Organic Compounds,CAP,514.21,Automobile/Truck or Parts Plant,3001  MILLER RD,Automobile and Light Duty Motor Vehicle Manufacturing,5,26163,42.303126,-83.164754
FORD MOTOR CO ROUGE COMPLEX,7884911,Michigan,MI - Wayne,Nitrogen Oxides,CAP,53.49,Automobile/Truck or Parts Plant,3001  MILLER RD,Automobile and Light Duty Motor Vehicle Manufacturing,5,26163,42.303126,-83.164754
FORD MOTOR CO ROUGE COMPLEX,7884911,Michigan,MI - Wayne,PM2.5 Primary (Filt + Cond),CAP,16.04,Automobile/Truck or Parts Plant,3001  MILLER RD,Automobile and Light Duty Motor Vehicle Manufacturing,5,26163,42.303126,-83.164754
FORD MOTOR CO ROUGE COMPLEX,7884911,Michigan,MI - Wayne,Sulfur Dioxide,CAP,0.36,Automobile/Truck or Parts Plant,3001  MILLER RD,Automobile and Light Duty Motor Vehicle Manufacturing,5,26163,42.303126,-83.164754
FORD MOTOR CO/ WAYNE COMPLEX,7885011,Michigan,MI - Wayne,Volatile Organic Compounds,CAP,150.98,Automobile/Truck or Parts Plant,37625 MICHIGAN AVE,Automobile and Light Duty Motor Vehicle Manufacturing,5,26163,42.2759,-83.4121
FORD MOTOR CO/ WAYNE COMPLEX,7885011,Michigan,MI - Wayne,Nitrogen Oxides,CAP,57.16,Automobile/Truck or Parts Plant,37625 MICHIGAN AVE,Automobile and Light Duty Motor Vehicle Manufacturing,5,26163,42.2759,-83.4121
FORD MOTOR CO/ WAYNE COMPLEX,7885011,Michigan,MI - Wayne,PM2.5 Primary (Filt + Cond),CAP,5.88,Automobile/Truck or Parts Plant,37625 MICHIGAN AVE,Automobile and Light Duty Motor Vehicle Manufacturing,5,26163,42.2759,-83.4121
FORD MOTOR CO/ WAYNE COMPLEX,7885011,Michigan,MI - Wayne,Sulfur Dioxide,CAP,0.34,Automobile/Truck or Parts Plant,37625 MICHIGAN AVE,Automobile and Light Duty Motor Vehicle Manufacturing,5,26163,42.2759,-83.4121
Ford Motor Company - Flat Rock Assembly,7347511,Michigan,MI - Wayne,Volatile Organic Compounds,CAP,123.67,Automobile/Truck or Parts Plant,1  INTERNATIONAL DR,Automobile and Light Duty Motor Vehicle Manufacturing,5,26163,42.10621,-83.247708
Ford Motor Company - Flat Rock Assembly,7347511,Michigan,MI - Wayne,Nitrogen Oxides,CAP,50.29,Automobile/Truck or Parts Plant,1  INTERNATIONAL DR,Automobile and Light Duty Motor Vehicle Manufacturing,5,26163,42.10621,-83.247708
Ford Motor Company - Flat Rock Assembly,7347511,Michigan,MI - Wayne,PM2.5 Primary (Filt + Cond),CAP,9.06,Automobile/Truck or Parts Plant,1  INTERNATIONAL DR,Automobile and Light Duty Motor Vehicle Manufacturing,5,26163,42.10621,-83.247708
Ford Motor Company - Flat Rock Assembly,7347511,Michigan,MI - Wayne,Sulfur Dioxide,CAP,1.54,Automobile/Truck or Parts Plant,1  INTERNATIONAL DR,Automobile and Light Duty Motor Vehicle Manufacturing,5,26163,42.10621,-83.247708
GENERAL MOTORS LLC  DETROIT-HAMTRAMCK ASSEMBLY,8172011,Michigan,MI - Wayne,Volatile Organic Compounds,CAP,52.74,Automobile/Truck or Parts Plant,2500 E GENERAL MOTORS BLVD,Automobile and Light Duty Motor Vehicle Manufacturing,5,26163,42.381971,-83.044919
GENERAL MOTORS LLC  DETROIT-HAMTRAMCK ASSEMBLY,8172011,Michigan,MI - Wayne,Nitrogen Oxides,CAP,5.86,Automobile/Truck or Parts Plant,2500 E GENERAL MOTORS BLVD,Automobile and Light Duty Motor Vehicle Manufacturing,5,26163,42.381971,-83.044919
GENERAL MOTORS LLC  DETROIT-HAMTRAMCK ASSEMBLY,8172011,Michigan,MI - Wayne,PM2.5 Primary (Filt + Cond),CAP,0.71,Automobile/Truck or Parts Plant,2500 E GENERAL MOTORS BLVD,Automobile and Light Duty Motor Vehicle Manufacturing,5,26163,42.381971,-83.044919
GENERAL MOTORS LLC  DETROIT-HAMTRAMCK ASSEMBLY,8172011,Michigan,MI - Wayne,Sulfur Dioxide,CAP,0.09,Automobile/Truck or Parts Plant,2500 E GENERAL MOTORS BLVD,Automobile and Light Duty Motor Vehicle Manufacturing,5,26163,42.381971,-83.044919
"NISSAN NORTH AMERICA INC, CANTON MANUFAC",9448411,Mississippi,MS - Madison,Volatile Organic Compounds,CAP,459.14,Automobile/Truck or Parts Plant,300 NISSAN DRIVE,Automobile and Light Duty Motor Vehicle Manufacturing,4,28089,32.57149,-90.069299
"NISSAN NORTH AMERICA INC, CANTON MANUFAC",9448411,Mississippi,MS - Madison,PM2.5 Primary (Filt + Cond),CAP,131.36,Automobile/Truck or Parts Plant,300 NISSAN DRIVE,Automobile and Light Duty Motor Vehicle Manufacturing,4,28089,32.57149,-90.069299
"NISSAN NORTH AMERICA INC, CANTON MANUFAC",9448411,Mississippi,MS - Madison,Nitrogen Oxides,CAP,27.07,Automobile/Truck or Parts Plant,300 NISSAN DRIVE,Automobile and Light Duty Motor Vehicle Manufacturing,4,28089,32.57149,-90.069299
"NISSAN NORTH AMERICA INC, CANTON MANUFAC",9448411,Mississippi,MS - Madison,Sulfur Dioxide,CAP,0.07,Automobile/Truck or Parts Plant,300 NISSAN DRIVE,Automobile and Light Duty Motor Vehicle Manufacturing,4,28089,32.57149,-90.069299
TOYOTA MOTOR MANUFACTURING MISSISSIPPI I,15336111,Mississippi,MS - Union,Volatile Organic Compounds,CAP,152,Automobile/Truck or Parts Plant,1200 MAGNOLIA WAY,Automobile and Light Duty Motor Vehicle Manufacturing,4,28145,34.379534,-88.897285
TOYOTA MOTOR MANUFACTURING MISSISSIPPI I,15336111,Mississippi,MS - Union,Nitrogen Oxides,CAP,14.47,Automobile/Truck or Parts Plant,1200 MAGNOLIA WAY,Automobile and Light Duty Motor Vehicle Manufacturing,4,28145,34.379534,-88.897285
TOYOTA MOTOR MANUFACTURING MISSISSIPPI I,15336111,Mississippi,MS - Union,PM2.5 Primary (Filt + Cond),CAP,4.6,Automobile/Truck or Parts Plant,1200 MAGNOLIA WAY,Automobile and Light Duty Motor Vehicle Manufacturing,4,28145,34.379534,-88.897285
TOYOTA MOTOR MANUFACTURING MISSISSIPPI I,15336111,Mississippi,MS - Union,Sulfur Dioxide,CAP,0.14,Automobile/Truck or Parts Plant,1200 MAGNOLIA WAY,Automobile and Light Duty Motor Vehicle Manufacturing,4,28145,34.379534,-88.897285
FORD MOTOR CO KANSAS CITY ASSEMBLY PLANT,7369111,Missouri,MO - Clay,Volatile Organic Compounds,CAP,1600.3,Automobile/Truck or Parts Plant,8121 E US HIGHWAY 69,Automobile and Light Duty Motor Vehicle Manufacturing,7,29047,39.203562,-94.479326
FORD MOTOR CO KANSAS CITY ASSEMBLY PLANT,7369111,Missouri,MO - Clay,Nitrogen Oxides,CAP,60.6,Automobile/Truck or Parts Plant,8121 E US HIGHWAY 69,Automobile and Light Duty Motor Vehicle Manufacturing,7,29047,39.203562,-94.479326
FORD MOTOR CO KANSAS CITY ASSEMBLY PLANT,7369111,Missouri,MO - Clay,PM2.5 Primary (Filt + Cond),CAP,59.82,Automobile/Truck or Parts Plant,8121 E US HIGHWAY 69,Automobile and Light Duty Motor Vehicle Manufacturing,7,29047,39.203562,-94.479326
FORD MOTOR CO KANSAS CITY ASSEMBLY PLANT,7369111,Missouri,MO - Clay,Sulfur Dioxide,CAP,0.38,Automobile/Truck or Parts Plant,8121 E US HIGHWAY 69,Automobile and Light Duty Motor Vehicle Manufacturing,7,29047,39.203562,-94.479326
GENERAL MOTORS LLC WENTZVILLE CENTER,7284511,Missouri,MO - St. Charles,Volatile Organic Compounds,CAP,657.98,Automobile/Truck or Parts Plant,1500 E RT  A,Automobile and Light Duty Motor Vehicle Manufacturing,7,29183,38.818962,-90.820916
GENERAL MOTORS LLC WENTZVILLE CENTER,7284511,Missouri,MO - St. Charles,Nitrogen Oxides,CAP,62,Automobile/Truck or Parts Plant,1500 E RT  A,Automobile and Light Duty Motor Vehicle Manufacturing,7,29183,38.818962,-90.820916
GENERAL MOTORS LLC WENTZVILLE CENTER,7284511,Missouri,MO - St. Charles,PM2.5 Primary (Filt + Cond),CAP,9.74,Automobile/Truck or Parts Plant,1500 E RT  A,Automobile and Light Duty Motor Vehicle Manufacturing,7,29183,38.818962,-90.820916
GENERAL MOTORS LLC WENTZVILLE CENTER,7284511,Missouri,MO - St. Charles,Sulfur Dioxide,CAP,0.37,Automobile/Truck or Parts Plant,1500 E RT  A,Automobile and Light Duty Motor Vehicle Manufacturing,7,29183,38.818962,-90.820916
"Honda Dev. & Mfg. of America, LLC, East Liberty Plant (0146000117)",8116411,Ohio,OH - Logan,Volatile Organic Compounds,CAP,552.65,Automobile/Truck or Parts Plant,11000 St. Rt. 347,Automobile and Light Duty Motor Vehicle Manufacturing,5,39091,40.3293,-83.5496
"Honda Dev. & Mfg. of America, LLC, East Liberty Plant (0146000117)",8116411,Ohio,OH - Logan,Nitrogen Oxides,CAP,25.71,Automobile/Truck or Parts Plant,11000 St. Rt. 347,Automobile and Light Duty Motor Vehicle Manufacturing,5,39091,40.3293,-83.5496
"Honda Dev. & Mfg. of America, LLC, East Liberty Plant (0146000117)",8116411,Ohio,OH - Logan,PM2.5 Primary (Filt + Cond),CAP,10.3,Automobile/Truck or Parts Plant,11000 St. Rt. 347,Automobile and Light Duty Motor Vehicle Manufacturing,5,39091,40.3293,-83.5496
"Honda Dev. & Mfg. of America, LLC, East Liberty Plant (0146000117)",8116411,Ohio,OH - Logan,Sulfur Dioxide,CAP,0.16,Automobile/Truck or Parts Plant,11000 St. Rt. 347,Automobile and Light Duty Motor Vehicle Manufacturing,5,39091,40.3293,-83.5496
Ford Motor Company - Ohio Assembly Plant (0247030471),8133111,Ohio,OH - Lorain,Volatile Organic Compounds,CAP,73.64,Automobile/Truck or Parts Plant,650 Miller Road,Automobile and Light Duty Motor Vehicle Manufacturing,5,39093,41.4864,-82.0659
Ford Motor Company - Ohio Assembly Plant (0247030471),8133111,Ohio,OH - Lorain,Nitrogen Oxides,CAP,20.46,Automobile/Truck or Parts Plant,650 Miller Road,Automobile and Light Duty Motor Vehicle Manufacturing,5,39093,41.4864,-82.0659
Ford Motor Company - Ohio Assembly Plant (0247030471),8133111,Ohio,OH - Lorain,PM2.5 Primary (Filt + Cond),CAP,4.73,Automobile/Truck or Parts Plant,650 Miller Road,Automobile and Light Duty Motor Vehicle Manufacturing,5,39093,41.4864,-82.0659
Ford Motor Company - Ohio Assembly Plant (0247030471),8133111,Ohio,OH - Lorain,Sulfur Dioxide,CAP,0.12,Automobile/Truck or Parts Plant,650 Miller Road,Automobile and Light Duty Motor Vehicle Manufacturing,5,39093,41.4864,-82.0659
FCA US LLC - Toledo North Assembly (0448010414),8064011,Ohio,OH - Lucas,Volatile Organic Compounds,CAP,424.61,Automobile/Truck or Parts Plant,4400 Chrysler Drive,Automobile and Light Duty Motor Vehicle Manufacturing,5,39095,41.695224,-83.518834
FCA US LLC - Toledo North Assembly (0448010414),8064011,Ohio,OH - Lucas,Nitrogen Oxides,CAP,32.62,Automobile/Truck or Parts Plant,4400 Chrysler Drive,Automobile and Light Duty Motor Vehicle Manufacturing,5,39095,41.695224,-83.518834
FCA US LLC - Toledo North Assembly (0448010414),8064011,Ohio,OH - Lucas,PM2.5 Primary (Filt + Cond),CAP,10.86,Automobile/Truck or Parts Plant,4400 Chrysler Drive,Automobile and Light Duty Motor Vehicle Manufacturing,5,39095,41.695224,-83.518834
FCA US LLC - Toledo North Assembly (0448010414),8064011,Ohio,OH - Lucas,Sulfur Dioxide,CAP,0.21,Automobile/Truck or Parts Plant,4400 Chrysler Drive,Automobile and Light Duty Motor Vehicle Manufacturing,5,39095,41.695224,-83.518834
Kenworth Truck Company (0671010121),8131611,Ohio,OH - Ross,Volatile Organic Compounds,CAP,103.63,Automobile/Truck or Parts Plant,65 Kenworth Drive,Automobile and Light Duty Motor Vehicle Manufacturing,5,39141,39.40222,-82.96833
Kenworth Truck Company (0671010121),8131611,Ohio,OH - Ross,Nitrogen Oxides,CAP,2.82,Automobile/Truck or Parts Plant,65 Kenworth Drive,Automobile and Light Duty Motor Vehicle Manufacturing,5,39141,39.40222,-82.96833
Kenworth Truck Company (0671010121),8131611,Ohio,OH - Ross,PM2.5 Primary (Filt + Cond),CAP,0.2,Automobile/Truck or Parts Plant,65 Kenworth Drive,Automobile and Light Duty Motor Vehicle Manufacturing,5,39141,39.40222,-82.96833
Kenworth Truck Company (0671010121),8131611,Ohio,OH - Ross,Sulfur Dioxide,CAP,0.01,Automobile/Truck or Parts Plant,65 Kenworth Drive,Automobile and Light Duty Motor Vehicle Manufacturing,5,39141,39.40222,-82.96833
"Honda of America Mfg., Inc., Marysville Auto Plant (0180010193)",13468111,Ohio,OH - Union,Volatile Organic Compounds,CAP,363.57,Automobile/Truck or Parts Plant,24000 Honda Parkway,Automobile and Light Duty Motor Vehicle Manufacturing,5,39159,40.278217,-83.507965
"Honda of America Mfg., Inc., Marysville Auto Plant (0180010193)",13468111,Ohio,OH - Union,Nitrogen Oxides,CAP,36.59,Automobile/Truck or Parts Plant,24000 Honda Parkway,Automobile and Light Duty Motor Vehicle Manufacturing,5,39159,40.278217,-83.507965
"Honda of America Mfg., Inc., Marysville Auto Plant (0180010193)",13468111,Ohio,OH - Union,PM2.5 Primary (Filt + Cond),CAP,6.07,Automobile/Truck or Parts Plant,24000 Honda Parkway,Automobile and Light Duty Motor Vehicle Manufacturing,5,39159,40.278217,-83.507965
"Honda of America Mfg., Inc., Marysville Auto Plant (0180010193)",13468111,Ohio,OH - Union,Sulfur Dioxide,CAP,0.33,Automobile/Truck or Parts Plant,24000 Honda Parkway,Automobile and Light Duty Motor Vehicle Manufacturing,5,39159,40.278217,-83.507965
BMW MANUFACTURING CO LLC,6640511,South Carolina,SC - Spartanburg,Volatile Organic Compounds,CAP,629.19,Automobile/Truck or Parts Plant,1400 HWY 101 S,Automobile and Light Duty Motor Vehicle Manufacturing,4,45083,34.8956,-82.1779
BMW MANUFACTURING CO LLC,6640511,South Carolina,SC - Spartanburg,Nitrogen Oxides,CAP,187.53,Automobile/Truck or Parts Plant,1400 HWY 101 S,Automobile and Light Duty Motor Vehicle Manufacturing,4,45083,34.8956,-82.1779
BMW MANUFACTURING CO LLC,6640511,South Carolina,SC - Spartanburg,PM2.5 Primary (Filt + Cond),CAP,42.48,Automobile/Truck or Parts Plant,1400 HWY 101 S,Automobile and Light Duty Motor Vehicle Manufacturing,4,45083,34.8956,-82.1779
BMW MANUFACTURING CO LLC,6640511,South Carolina,SC - Spartanburg,Sulfur Dioxide,CAP,9.03,Automobile/Truck or Parts Plant,1400 HWY 101 S,Automobile and Light Duty Motor Vehicle Manufacturing,4,45083,34.8956,-82.1779
"Volkswagen Group of America Chattanooga Operations, LLC",15530211,Tennessee,TN - Hamilton,Volatile Organic Compounds,CAP,163.2,Automobile/Truck or Parts Plant,8001 Volkswagen Drive,Automobile and Light Duty Motor Vehicle Manufacturing,4,47065,35.07628,-85.134786
"Volkswagen Group of America Chattanooga Operations, LLC",15530211,Tennessee,TN - Hamilton,Nitrogen Oxides,CAP,24.38,Automobile/Truck or Parts Plant,8001 Volkswagen Drive,Automobile and Light Duty Motor Vehicle Manufacturing,4,47065,35.07628,-85.134786
"Volkswagen Group of America Chattanooga Operations, LLC",15530211,Tennessee,TN - Hamilton,PM2.5 Primary (Filt + Cond),CAP,12.2,Automobile/Truck or Parts Plant,8001 Volkswagen Drive,Automobile and Light Duty Motor Vehicle Manufacturing,4,47065,35.07628,-85.134786
"Volkswagen Group of America Chattanooga Operations, LLC",15530211,Tennessee,TN - Hamilton,Sulfur Dioxide,CAP,0.16,Automobile/Truck or Parts Plant,8001 Volkswagen Drive,Automobile and Light Duty Motor Vehicle Manufacturing,4,47065,35.07628,-85.134786
General Motors LLC Spring Hill Manufacturing,3980611,Tennessee,TN - Maury,Volatile Organic Compounds,CAP,391.13,Automobile/Truck or Parts Plant,"100 SATURN PARKWAY SPRING HILL, TN 37174",Automobile and Light Duty Motor Vehicle Manufacturing,4,47119,35.737595,-86.963825
General Motors LLC Spring Hill Manufacturing,3980611,Tennessee,TN - Maury,Nitrogen Oxides,CAP,29.17,Automobile/Truck or Parts Plant,"100 SATURN PARKWAY SPRING HILL, TN 37174",Automobile and Light Duty Motor Vehicle Manufacturing,4,47119,35.737595,-86.963825
General Motors LLC Spring Hill Manufacturing,3980611,Tennessee,TN - Maury,PM2.5 Primary (Filt + Cond),CAP,14.26,Automobile/Truck or Parts Plant,"100 SATURN PARKWAY SPRING HILL, TN 37174",Automobile and Light Duty Motor Vehicle Manufacturing,4,47119,35.737595,-86.963825
General Motors LLC Spring Hill Manufacturing,3980611,Tennessee,TN - Maury,Sulfur Dioxide,CAP,0.18,Automobile/Truck or Parts Plant,"100 SATURN PARKWAY SPRING HILL, TN 37174",Automobile and Light Duty Motor Vehicle Manufacturing,4,47119,35.737595,-86.963825
"Nissan North America, Inc. - Smyrna",5615711,Tennessee,TN - Rutherford,Volatile Organic Compounds,CAP,918.61,Automobile/Truck or Parts Plant,983 Nissan Drive,Automobile and Light Duty Motor Vehicle Manufacturing,4,47149,35.9637,-86.485
"Nissan North America, Inc. - Smyrna",5615711,Tennessee,TN - Rutherford,Nitrogen Oxides,CAP,33.82,Automobile/Truck or Parts Plant,983 Nissan Drive,Automobile and Light Duty Motor Vehicle Manufacturing,4,47149,35.9637,-86.485
"Nissan North America, Inc. - Smyrna",5615711,Tennessee,TN - Rutherford,PM2.5 Primary (Filt + Cond),CAP,6.73,Automobile/Truck or Parts Plant,983 Nissan Drive,Automobile and Light Duty Motor Vehicle Manufacturing,4,47149,35.9637,-86.485
"Nissan North America, Inc. - Smyrna",5615711,Tennessee,TN - Rutherford,Sulfur Dioxide,CAP,0.43,Automobile/Truck or Parts Plant,983 Nissan Drive,Automobile and Light Duty Motor Vehicle Manufacturing,4,47149,35.9637,-86.485
TOYOTA VEHICLE ASSEMBLY PLANT,13376011,Texas,TX - Bexar,Volatile Organic Compounds,CAP,312.11,Automobile/Truck or Parts Plant,15698 APPLEWHITE RD,Automobile and Light Duty Motor Vehicle Manufacturing,6,48029,29.263056,-98.54
TOYOTA VEHICLE ASSEMBLY PLANT,13376011,Texas,TX - Bexar,PM2.5 Primary (Filt + Cond),CAP,16.8,Automobile/Truck or Parts Plant,15698 APPLEWHITE RD,Automobile and Light Duty Motor Vehicle Manufacturing,6,48029,29.263056,-98.54
TOYOTA VEHICLE ASSEMBLY PLANT,13376011,Texas,TX - Bexar,Nitrogen Oxides,CAP,11.4,Automobile/Truck or Parts Plant,15698 APPLEWHITE RD,Automobile and Light Duty Motor Vehicle Manufacturing,6,48029,29.263056,-98.54
TOYOTA VEHICLE ASSEMBLY PLANT,13376011,Texas,TX - Bexar,Sulfur Dioxide,CAP,0.12,Automobile/Truck or Parts Plant,15698 APPLEWHITE RD,Automobile and Light Duty Motor Vehicle Manufacturing,6,48029,29.263056,-98.54
PETERBILT MOTORS DENTON FACILITY,4145911,Texas,TX - Denton,Volatile Organic Compounds,CAP,49.47,Automobile/Truck or Parts Plant,3200 AIRPORT RD; SW OF DENTON,Automobile and Light Duty Motor Vehicle Manufacturing,6,48121,33.203944,-97.175994
PETERBILT MOTORS DENTON FACILITY,4145911,Texas,TX - Denton,Nitrogen Oxides,CAP,11.26,Automobile/Truck or Parts Plant,3200 AIRPORT RD; SW OF DENTON,Automobile and Light Duty Motor Vehicle Manufacturing,6,48121,33.203944,-97.175994
PETERBILT MOTORS DENTON FACILITY,4145911,Texas,TX - Denton,PM2.5 Primary (Filt + Cond),CAP,1.57,Automobile/Truck or Parts Plant,3200 AIRPORT RD; SW OF DENTON,Automobile and Light Duty Motor Vehicle Manufacturing,6,48121,33.203944,-97.175994
PETERBILT MOTORS DENTON FACILITY,4145911,Texas,TX - Denton,Sulfur Dioxide,CAP,0.08,Automobile/Truck or Parts Plant,3200 AIRPORT RD; SW OF DENTON,Automobile and Light Duty Motor Vehicle Manufacturing,6,48121,33.203944,-97.175994
ARLINGTON ASSEMBLY PLANT,4039511,Texas,TX - Tarrant,Volatile Organic Compounds,CAP,253.61,Automobile/Truck or Parts Plant,2525 EAST ABRAM ST,Automobile and Light Duty Motor Vehicle Manufacturing,6,48439,32.738333,-97.068606
ARLINGTON ASSEMBLY PLANT,4039511,Texas,TX - Tarrant,Nitrogen Oxides,CAP,50.73,Automobile/Truck or Parts Plant,2525 EAST ABRAM ST,Automobile and Light Duty Motor Vehicle Manufacturing,6,48439,32.738333,-97.068606
ARLINGTON ASSEMBLY PLANT,4039511,Texas,TX - Tarrant,PM2.5 Primary (Filt + Cond),CAP,5.49,Automobile/Truck or Parts Plant,2525 EAST ABRAM ST,Automobile and Light Duty Motor Vehicle Manufacturing,6,48439,32.738333,-97.068606
ARLINGTON ASSEMBLY PLANT,4039511,Texas,TX - Tarrant,Sulfur Dioxide,CAP,0.22,Automobile/Truck or Parts Plant,2525 EAST ABRAM ST,Automobile and Light Duty Motor Vehicle Manufacturing,6,48439,32.738333,-97.068606
